[
    {
        "Altitude(m)": 568509.1348286184,
        "Argument of Periapsis(deg)": -0.022603160782972403,
        "Eccentricity": 0.0,
        "Inclination(deg)": 97.0,
        "Latitude(deg)": -10.907521254760951,
        "Longitude(deg)": 106.30674185426938,
        "Mean Anomaly(deg)": 190.82454326918753,
        "RAAN(deg)": 30.005947053618513,
        "Satellite Name": "Starlink Shell 3 1667",
        "Satellite Number": 1667,
        "Semi-Major Axis(m)": 6938478.169268562,
        "Time(s)": 570
    },
    {
        "Altitude(m)": 568663.7709864925,
        "Argument of Periapsis(deg)": -0.02299970746337543,
        "Eccentricity": 0.0,
        "Inclination(deg)": 97.0,
        "Latitude(deg)": -11.53116766205369,
        "Longitude(deg)": 106.18588877434684,
        "Mean Anomaly(deg)": 191.45001946689257,
        "RAAN(deg)": 30.006051387892512,
        "Satellite Name": "Starlink Shell 3 1667",
        "Satellite Number": 1667,
        "Semi-Major Axis(m)": 6938478.169268562,
        "Time(s)": 580
    },
    {
        "Altitude(m)": 568822.169590236,
        "Argument of Periapsis(deg)": -0.023396254143778456,
        "Eccentricity": 0.0,
        "Inclination(deg)": 97.0,
        "Latitude(deg)": -12.154744303670439,
        "Longitude(deg)": 106.06468956358441,
        "Mean Anomaly(deg)": 192.0754956645976,
        "RAAN(deg)": 30.00615572216653,
        "Satellite Name": "Starlink Shell 3 1667",
        "Satellite Number": 1667,
        "Semi-Major Axis(m)": 6938478.169268562,
        "Time(s)": 590
    },
    {
        "Altitude(m)": 568984.2827281832,
        "Argument of Periapsis(deg)": -0.023792800824181483,
        "Eccentricity": 0.0,
        "Inclination(deg)": 97.0,
        "Latitude(deg)": -12.778248198878881,
        "Longitude(deg)": 105.94312303973553,
        "Mean Anomaly(deg)": 192.70097186230265,
        "RAAN(deg)": 30.00626005644054,
        "Satellite Name": "Starlink Shell 3 1667",
        "Satellite Number": 1667,
        "Semi-Major Axis(m)": 6938478.169268562,
        "Time(s)": 600
    },
    {
        "Altitude(m)": 569150.060638301,
        "Argument of Periapsis(deg)": -0.024189347504584503,
        "Eccentricity": 0.0,
        "Inclination(deg)": 97.0,
        "Latitude(deg)": -13.401676364474469,
        "Longitude(deg)": 105.82116765672357,
        "Mean Anomaly(deg)": 193.32644806000772,
        "RAAN(deg)": 30.006364390714545,
        "Satellite Name": "Starlink Shell 3 1667",
        "Satellite Number": 1667,
        "Semi-Major Axis(m)": 6938478.169268562,
        "Time(s)": 610
    },
    {
        "Altitude(m)": 569319.4517300382,
        "Argument of Periapsis(deg)": -0.02458589418498753,
        "Eccentricity": 0.0,
        "Inclination(deg)": 97.0,
        "Latitude(deg)": -14.025025814147343,
        "Longitude(deg)": 105.69880198511278,
        "Mean Anomaly(deg)": 193.95192425771276,
        "RAAN(deg)": 30.006468724988554,
        "Satellite Name": "Starlink Shell 3 1667",
        "Satellite Number": 1667,
        "Semi-Major Axis(m)": 6938478.169268562,
        "Time(s)": 620
    },
    {
        "Altitude(m)": 569492.4026070519,
        "Argument of Periapsis(deg)": -0.024982440865390556,
        "Eccentricity": 0.0,
        "Inclination(deg)": 97.0,
        "Latitude(deg)": -14.648293557785676,
        "Longitude(deg)": 105.57600351077612,
        "Mean Anomaly(deg)": 194.5774004554178,
        "RAAN(deg)": 30.006573059262564,
        "Satellite Name": "Starlink Shell 3 1667",
        "Satellite Number": 1667,
        "Semi-Major Axis(m)": 6938478.169268562,
        "Time(s)": 630
    },
    {
        "Altitude(m)": 569668.8580908371,
        "Argument of Periapsis(deg)": -0.025378987545793576,
        "Eccentricity": 0.0,
        "Inclination(deg)": 97.0,
        "Latitude(deg)": -15.271476600712678,
        "Longitude(deg)": 105.45274995412284,
        "Mean Anomaly(deg)": 195.20287665312281,
        "RAAN(deg)": 30.00667739353657,
        "Satellite Name": "Starlink Shell 3 1667",
        "Satellite Number": 1667,
        "Semi-Major Axis(m)": 6938478.169268562,
        "Time(s)": 640
    },
    {
        "Altitude(m)": 569848.761245294,
        "Argument of Periapsis(deg)": -0.025775534226196602,
        "Eccentricity": 0.0,
        "Inclination(deg)": 97.0,
        "Latitude(deg)": -15.894571942851169,
        "Longitude(deg)": 105.32901806691198,
        "Mean Anomaly(deg)": 195.82835285082786,
        "RAAN(deg)": 30.00678172781058,
        "Satellite Name": "Starlink Shell 3 1667",
        "Satellite Number": 1667,
        "Semi-Major Axis(m)": 6938478.169268562,
        "Time(s)": 650
    },
    {
        "Altitude(m)": 570032.0534020623,
        "Argument of Periapsis(deg)": -0.026172080906599626,
        "Eccentricity": 0.0,
        "Inclination(deg)": 97.0,
        "Latitude(deg)": -16.517576577812708,
        "Longitude(deg)": 105.20478410900868,
        "Mean Anomaly(deg)": 196.4538290485329,
        "RAAN(deg)": 30.006886062084593,
        "Satellite Name": "Starlink Shell 3 1667",
        "Satellite Number": 1667,
        "Semi-Major Axis(m)": 6938478.169268562,
        "Time(s)": 660
    },
    {
        "Altitude(m)": 570218.6741868404,
        "Argument of Periapsis(deg)": -0.026568627587002652,
        "Eccentricity": 0.0,
        "Inclination(deg)": 97.0,
        "Latitude(deg)": -17.140487491905184,
        "Longitude(deg)": 105.08002432404032,
        "Mean Anomaly(deg)": 197.0793052462379,
        "RAAN(deg)": 30.006990396358596,
        "Satellite Name": "Starlink Shell 3 1667",
        "Satellite Number": 1667,
        "Semi-Major Axis(m)": 6938478.169268562,
        "Time(s)": 670
    },
    {
        "Altitude(m)": 570408.561546423,
        "Argument of Periapsis(deg)": -0.02696517426740568,
        "Eccentricity": 0.0,
        "Inclination(deg)": 97.0,
        "Latitude(deg)": -17.76330166305413,
        "Longitude(deg)": 104.95471390100455,
        "Mean Anomaly(deg)": 197.70478144394295,
        "RAAN(deg)": 30.00709473063261,
        "Satellite Name": "Starlink Shell 3 1667",
        "Satellite Number": 1667,
        "Semi-Major Axis(m)": 6938478.169268562,
        "Time(s)": 680
    },
    {
        "Altitude(m)": 570601.6517766456,
        "Argument of Periapsis(deg)": -0.0273617209478087,
        "Eccentricity": 0.0,
        "Inclination(deg)": 97.0,
        "Latitude(deg)": -18.386016059632166,
        "Longitude(deg)": 104.82882744749266,
        "Mean Anomaly(deg)": 198.33025764164805,
        "RAAN(deg)": 30.00719906490661,
        "Satellite Name": "Starlink Shell 3 1667",
        "Satellite Number": 1667,
        "Semi-Major Axis(m)": 6938478.169268562,
        "Time(s)": 690
    },
    {
        "Altitude(m)": 570797.8795511042,
        "Argument of Periapsis(deg)": -0.027758267628211725,
        "Eccentricity": 0.0,
        "Inclination(deg)": 97.0,
        "Latitude(deg)": -19.008627639191204,
        "Longitude(deg)": 104.70233946157,
        "Mean Anomaly(deg)": 198.9557338393531,
        "RAAN(deg)": 30.007303399180625,
        "Satellite Name": "Starlink Shell 3 1667",
        "Satellite Number": 1667,
        "Semi-Major Axis(m)": 6938478.169268562,
        "Time(s)": 700
    },
    {
        "Altitude(m)": 570997.177950687,
        "Argument of Periapsis(deg)": -0.028154814308614752,
        "Eccentricity": 0.0,
        "Inclination(deg)": 97.0,
        "Latitude(deg)": -19.63113334709112,
        "Longitude(deg)": 104.57522328934874,
        "Mean Anomaly(deg)": 199.58121003705816,
        "RAAN(deg)": 30.007407733454635,
        "Satellite Name": "Starlink Shell 3 1667",
        "Satellite Number": 1667,
        "Semi-Major Axis(m)": 6938478.169268562,
        "Time(s)": 710
    },
    {
        "Altitude(m)": 571199.4784938627,
        "Argument of Periapsis(deg)": -0.02855136098901778,
        "Eccentricity": 0.0,
        "Inclination(deg)": 97.0,
        "Latitude(deg)": -20.253530115017465,
        "Longitude(deg)": 104.44745159390193,
        "Mean Anomaly(deg)": 200.20668623476317,
        "RAAN(deg)": 30.00751206772864,
        "Satellite Name": "Starlink Shell 3 1667",
        "Satellite Number": 1667,
        "Semi-Major Axis(m)": 6938478.169268562,
        "Time(s)": 720
    },
    {
        "Altitude(m)": 571404.7111677362,
        "Argument of Periapsis(deg)": -0.028947907669420805,
        "Eccentricity": 0.0,
        "Inclination(deg)": 97.0,
        "Latitude(deg)": -20.875814859383787,
        "Longitude(deg)": 104.31899682254061,
        "Mean Anomaly(deg)": 200.8321624324682,
        "RAAN(deg)": 30.00761640200265,
        "Satellite Name": "Starlink Shell 3 1667",
        "Satellite Number": 1667,
        "Semi-Major Axis(m)": 6938478.169268562,
        "Time(s)": 730
    },
    {
        "Altitude(m)": 571612.8044598493,
        "Argument of Periapsis(deg)": -0.029344454349823825,
        "Eccentricity": 0.0,
        "Inclination(deg)": 97.0,
        "Latitude(deg)": -21.497984479608537,
        "Longitude(deg)": 104.18983015947246,
        "Mean Anomaly(deg)": 201.45763863017322,
        "RAAN(deg)": 30.007720736276664,
        "Satellite Name": "Starlink Shell 3 1667",
        "Satellite Number": 1667,
        "Semi-Major Axis(m)": 6938478.169268562,
        "Time(s)": 740
    },
    {
        "Altitude(m)": 571823.6853907048,
        "Argument of Periapsis(deg)": -0.029741001030226845,
        "Eccentricity": 0.0,
        "Inclination(deg)": 97.0,
        "Latitude(deg)": -22.120035856260397,
        "Longitude(deg)": 104.0599219894678,
        "Mean Anomaly(deg)": 202.08311482787826,
        "RAAN(deg)": 30.007825070550666,
        "Satellite Name": "Starlink Shell 3 1667",
        "Satellite Number": 1667,
        "Semi-Major Axis(m)": 6938478.169268562,
        "Time(s)": 750
    }
]